{
  "type": "FeatureCollection",
  "features": [
    {
      "type": "Feature",
      "properties": {
        "norad_id": 66919,
        "name": "HULIANWANG DIGUI-109",
        "group": "last-30-days",
        "lat": 43.3088809110445,
        "lon": -162.2594849336841,
        "alt_km": 879.6122189897833,
        "timestamp": "2025-12-24T07:45:04.933916+00:00",
        "meta_object_name": "HULIANWANG DIGUI-109",
        "meta_object_id": "2025-285E",
        "meta_epoch": "2025-12-23T22:39:23.371200",
        "meta_mean_motion": 14.03727501,
        "meta_eccentricity": 0.00079209,
        "meta_inclination": 50.0076,
        "meta_ra_of_asc_node": 71.5871,
        "meta_arg_of_pericenter": 329.7906,
        "meta_mean_anomaly": 30.2541,
        "meta_ephemeris_type": 0,
        "meta_classification_type": "U",
        "meta_norad_cat_id": 66919,
        "meta_element_set_no": 999,
        "meta_rev_at_epoch": 248,
        "meta_bstar": 0.00012502475,
        "meta_mean_motion_dot": 4.6e-07,
        "meta_mean_motion_ddot": 0,
        "tle_line1": "1 66919U 25285E   25357.94402050  .00000046  00000+0  12502-3 0  9991",
        "tle_line2": "2 66919  50.0076  71.5871 0007920 329.7906  30.2541 14.03727501  2483"
      },
      "geometry": {
        "type": "Point",
        "coordinates": [
          -162.2594849336841,
          43.3088809110445
        ]
      }
    },
    {
      "type": "Feature",
      "properties": {
        "norad_id": 66920,
        "name": "HULIANWANG DIGUI-110",
        "group": "last-30-days",
        "lat": 41.45382043878848,
        "lon": -157.80003759623662,
        "alt_km": 878.9218718540797,
        "timestamp": "2025-12-24T07:45:04.933929+00:00",
        "meta_object_name": "HULIANWANG DIGUI-110",
        "meta_object_id": "2025-285F",
        "meta_epoch": "2025-12-23T22:38:17.658816",
        "meta_mean_motion": 14.0368371,
        "meta_eccentricity": 0.00056315,
        "meta_inclination": 50.012,
        "meta_ra_of_asc_node": 71.5901,
        "meta_arg_of_pericenter": 326.9084,
        "meta_mean_anomaly": 33.1467,
        "meta_ephemeris_type": 0,
        "meta_classification_type": "U",
        "meta_norad_cat_id": 66920,
        "meta_element_set_no": 999,
        "meta_rev_at_epoch": 248,
        "meta_bstar": 0.00011760501,
        "meta_mean_motion_dot": 3.5e-07,
        "meta_mean_motion_ddot": 0,
        "tle_line1": "1 66920U 25285F   25357.94325994  .00000035  00000+0  11761-3 0  9998",
        "tle_line2": "2 66920  50.0120  71.5901 0005631 326.9084  33.1467 14.03683710  2484"
      },
      "geometry": {
        "type": "Point",
        "coordinates": [
          -157.80003759623662,
          41.45382043878848
        ]
      }
    },
    {
      "type": "Feature",
      "properties": {
        "norad_id": 66921,
        "name": "HULIANWANG DIGUI-111",
        "group": "last-30-days",
        "lat": 39.39864333546206,
        "lon": -153.53768847219638,
        "alt_km": 880.1022987112683,
        "timestamp": "2025-12-24T07:45:04.933941+00:00",
        "meta_object_name": "HULIANWANG DIGUI-111",
        "meta_object_id": "2025-285G",
        "meta_epoch": "2025-12-23T22:37:10.965792",
        "meta_mean_motion": 14.03633254,
        "meta_eccentricity": 0.00067131,
        "meta_inclination": 50.0124,
        "meta_ra_of_asc_node": 71.5896,
        "meta_arg_of_pericenter": 330.6981,
        "meta_mean_anomaly": 29.3546,
        "meta_ephemeris_type": 0,
        "meta_classification_type": "U",
        "meta_norad_cat_id": 66921,
        "meta_element_set_no": 999,
        "meta_rev_at_epoch": 248,
        "meta_bstar": 0.00011897838,
        "meta_mean_motion_dot": 3.7e-07,
        "meta_mean_motion_ddot": 0,
        "tle_line1": "1 66921U 25285G   25357.94248803  .00000037  00000+0  11898-3 0  9995",
        "tle_line2": "2 66921  50.0124  71.5896 0006713 330.6981  29.3546 14.03633254  2485"
      },
      "geometry": {
        "type": "Point",
        "coordinates": [
          -153.53768847219638,
          39.39864333546206
        ]
      }
    },
    {
      "type": "Feature",
      "properties": {
        "norad_id": 66922,
        "name": "HULIANWANG DIGUI-112",
        "group": "last-30-days",
        "lat": 36.178928393273885,
        "lon": -147.84494904079654,
        "alt_km": 880.1646540378624,
        "timestamp": "2025-12-24T07:45:04.933954+00:00",
        "meta_object_name": "HULIANWANG DIGUI-112",
        "meta_object_id": "2025-285H",
        "meta_epoch": "2025-12-23T22:35:37.411008",
        "meta_mean_motion": 14.03663266,
        "meta_eccentricity": 0.00065324,
        "meta_inclination": 50.0096,
        "meta_ra_of_asc_node": 71.576,
        "meta_arg_of_pericenter": 341.3295,
        "meta_mean_anomaly": 18.7369,
        "meta_ephemeris_type": 0,
        "meta_classification_type": "U",
        "meta_norad_cat_id": 66922,
        "meta_element_set_no": 999,
        "meta_rev_at_epoch": 248,
        "meta_bstar": 0.00012638135,
        "meta_mean_motion_dot": 4.8e-07,
        "meta_mean_motion_ddot": 0,
        "tle_line1": "1 66922U 25285H   25357.94140522  .00000048  00000+0  12638-3 0  9990",
        "tle_line2": "2 66922  50.0096  71.5760 0006532 341.3295  18.7369 14.03663266  2481"
      },
      "geometry": {
        "type": "Point",
        "coordinates": [
          -147.84494904079654,
          36.178928393273885
        ]
      }
    },
    {
      "type": "Feature",
      "properties": {
        "norad_id": 66923,
        "name": "HULIANWANG DIGUI-113",
        "group": "last-30-days",
        "lat": 32.31762459328814,
        "lon": -142.05883560022525,
        "alt_km": 880.1369890545784,
        "timestamp": "2025-12-24T07:45:04.933965+00:00",
        "meta_object_name": "HULIANWANG DIGUI-113",
        "meta_object_id": "2025-285J",
        "meta_epoch": "2025-12-23T22:33:52.994016",
        "meta_mean_motion": 14.03701181,
        "meta_eccentricity": 0.00051364,
        "meta_inclination": 50.0096,
        "meta_ra_of_asc_node": 71.5712,
        "meta_arg_of_pericenter": 335.8775,
        "meta_mean_anomaly": 24.1889,
        "meta_ephemeris_type": 0,
        "meta_classification_type": "U",
        "meta_norad_cat_id": 66923,
        "meta_element_set_no": 999,
        "meta_rev_at_epoch": 248,
        "meta_bstar": 0.00012183237,
        "meta_mean_motion_dot": 4.1e-07,
        "meta_mean_motion_ddot": 0,
        "tle_line1": "1 66923U 25285J   25357.94019669  .00000041  00000+0  12183-3 0  9996",
        "tle_line2": "2 66923  50.0096  71.5712 0005136 335.8775  24.1889 14.03701181  2486"
      },
      "geometry": {
        "type": "Point",
        "coordinates": [
          -142.05883560022525,
          32.31762459328814
        ]
      }
    },
    {
      "type": "Feature",
      "properties": {
        "norad_id": 66924,
        "name": "CZ-8A R/B",
        "group": "last-30-days",
        "lat": -16.82972643787517,
        "lon": 52.13876024282424,
        "alt_km": 876.5434129492232,
        "timestamp": "2025-12-24T07:45:04.933976+00:00",
        "meta_object_name": "CZ-8A R/B",
        "meta_object_id": "2025-285K",
        "meta_epoch": "2025-12-23T15:05:29.547744",
        "meta_mean_motion": 14.30505924,
        "meta_eccentricity": 0.01192463,
        "meta_inclination": 50.0083,
        "meta_ra_of_asc_node": 69.8031,
        "meta_arg_of_pericenter": 145.1331,
        "meta_mean_anomaly": 215.7469,
        "meta_ephemeris_type": 0,
        "meta_classification_type": "U",
        "meta_norad_cat_id": 66924,
        "meta_element_set_no": 999,
        "meta_rev_at_epoch": 248,
        "meta_bstar": 5.5403296e-05,
        "meta_mean_motion_dot": -9e-08,
        "meta_mean_motion_ddot": 0,
        "tle_line1": "1 66924U 25285K   25357.62881421 -.00000009  00000+0  55403-4 0  9993",
        "tle_line2": "2 66924  50.0083  69.8031 0119246 145.1331 215.7469 14.30505924  2484"
      },
      "geometry": {
        "type": "Point",
        "coordinates": [
          52.13876024282424,
          -16.82972643787517
        ]
      }
    },
    {
      "type": "Feature",
      "properties": {
        "norad_id": 66925,
        "name": "STARLINK-35945",
        "group": "last-30-days",
        "lat": -53.138334239848696,
        "lon": -97.10064052864452,
        "alt_km": 373.82768746536476,
        "timestamp": "2025-12-24T07:45:04.933986+00:00",
        "meta_object_name": "STARLINK-35945",
        "meta_object_id": "2025-286A",
        "meta_epoch": "2025-12-23T22:00:01.999584",
        "meta_mean_motion": 15.6844784,
        "meta_eccentricity": 0.00012519,
        "meta_inclination": 53.1588,
        "meta_ra_of_asc_node": 354.5463,
        "meta_arg_of_pericenter": 91.5436,
        "meta_mean_anomaly": 44.5433,
        "meta_ephemeris_type": 0,
        "meta_classification_type": "U",
        "meta_norad_cat_id": 66925,
        "meta_element_set_no": 999,
        "meta_rev_at_epoch": 378,
        "meta_bstar": -0.01874145,
        "meta_mean_motion_dot": -0.01911195,
        "meta_mean_motion_ddot": 0,
        "tle_line1": "1 66925U 25286A   25357.91668981 -.01911195  00000+0 -18741-1 0  9991",
        "tle_line2": "2 66925  53.1588 354.5463 0001251  91.5436  44.5433 15.68447840  3785"
      },
      "geometry": {
        "type": "Point",
        "coordinates": [
          -97.10064052864452,
          -53.138334239848696
        ]
      }
    }
  ]
}